NORAD_CAT_ID,OBJECT_NAME,OBJECT_TYPE,EPOCH,MEAN_MOTION,ECCENTRICITY,INCLINATION,RA_OF_ASC_NODE,ARG_OF_PERICENTER,MEAN_ANOMALY,BSTAR,MEAN_MOTION_DOT,MEAN_MOTION_DDOT,TLE_LINE0,TLE_LINE1,TLE_LINE2,SEMIMAJOR_AXIS,PERIOD,APOGEE,PERIGEE,DECAYED
228,DELTA 1 DEB (YO),DEBRIS,2019-08-22 20:26:34,15.01135353,0.0014834000000000002,48.428999999999995,174.8581,44.8471,315.3649,1.8860999999999998e-05,-1.8e-07,0.0,0 DELTA 1 DEB (YO),1   228U 62002C   19234.85179066 -.00000018 +00000-0 +18861-4 0  9991,2   228 048.4290 174.8581 0014834 044.8471 315.3649 15.01135353066205,6941.531,95.927,573.693,553.099,0.0
228,DELTA 1 DEB (YO),DEBRIS,2019-08-23 20:24:18,15.01135763,0.0014799000000000001,48.4291,169.9492,49.4708,310.7502,1.741e-05,-3.7e-07,0.0,0 DELTA 1 DEB (YO),1   228U 62002C   19235.85021460 -.00000037  00000-0  17410-4 0  9996,2   228  48.4291 169.9492 0014799  49.4708 310.7502 15.01135763 90485,6941.53,95.927,573.668,553.122,0.0
228,DELTA 1 DEB (YO),DEBRIS,2019-08-24 20:22:02,15.01136163,0.0014769,48.4291,165.0398,54.2058,306.0236,1.7057e-05,-4.2e-07,0.0,0 DELTA 1 DEB (YO),1   228U 62002C   19236.84863812 -.00000042 +00000-0 +17057-4 0  9994,2   228 048.4291 165.0398 0014769 054.2058 306.0236 15.01136163066509,6941.529,95.927,573.646,553.1419999999998,0.0
228,DELTA 1 DEB (YO),DEBRIS,2019-08-25 20:19:46,15.01136634,0.001475,48.4291,160.1308,58.8106,301.4262,1.8104e-05,-2.8e-07,0.0,0 DELTA 1 DEB (YO),1   228U 62002C   19237.84706139 -.00000028 +00000-0 +18104-4 0  9991,2   228 048.4291 160.1308 0014750 058.8106 301.4262 15.01136634066657,6941.526999999999,95.927,573.631,553.153,0.0
228,DELTA 1 DEB (YO),DEBRIS,2019-08-26 18:41:38,15.011370999999999,0.0014729,48.4291,155.5492,63.09,297.1527,1.8743e-05,-2e-07,0.0,0 DELTA 1 DEB (YO),1   228U 62002C   19238.77892267 -.00000020  00000-0  18743-4 0  9993,2   228  48.4291 155.5492 0014729  63.0900 297.1527 15.01137100 90926,6941.526,95.927,573.615,553.1669999999998,0.0
228,DELTA 1 DEB (YO),DEBRIS,2019-08-27 18:39:22,15.01137681,0.0014720999999999998,48.4291,150.6402,67.7196,292.5287,1.9207e-05,-1.4e-07,0.0,0 DELTA 1 DEB (YO),1   228U 62002C   19239.77734476 -.00000014 +00000-0 +19207-4 0  9990,2   228 048.4291 150.6402 0014721 067.7196 292.5287 15.01137681066944,6941.524,95.927,573.6080000000002,553.17,0.0
228,DELTA 1 DEB (YO),DEBRIS,2019-08-28 18:37:06,15.01138042,0.0014702,48.4291,145.7311,72.2485,288.0042,1.8015e-05,-2.9e-07,0.0,0 DELTA 1 DEB (YO),1   228U 62002C   19240.77576649 -.00000029 +00000-0 +18015-4 0  9990,2   228 048.4291 145.7311 0014702 072.2485 288.0042 15.01138042067097,6941.523,95.927,573.5930000000002,553.182,0.0
228,DELTA 1 DEB (YO),DEBRIS,2019-08-29 16:58:58,15.01138499,0.0014702,48.4291,141.1493,76.5685,283.6876,1.9423e-05,-1.1e-07,0.0,0 DELTA 1 DEB (YO),1   228U 62002C   19241.70762637 -.00000011  00000-0  19423-4 0  9993,2   228  48.4291 141.1493 0014702  76.5685 283.6876 15.01138499 91366,6941.521,95.927,573.592,553.181,0.0
228,DELTA 1 DEB (YO),DEBRIS,2019-08-30 21:44:15,15.01139304,0.0014698,48.4291,135.2584,82.1546,278.1046,2.2935e-05,3.5e-07,0.0,0 DELTA 1 DEB (YO),1   228U 62002C   19242.90573119 +.00000035 +00000-0 +22935-4 0  9998,2   228 048.4291 135.2584 0014698 082.1546 278.1046 15.01139304067417,6941.519,95.927,573.587,553.181,0.0
228,DELTA 1 DEB (YO),DEBRIS,2019-08-31 20:06:07,15.01140337,0.001468,48.4293,130.6769,86.3058,273.9544,2.8538e-05,1.08e-06,0.0,0 DELTA 1 DEB (YO),1   228U 62002C   19243.83758959  .00000108  00000-0  28538-4 0  9994,2   228  48.4293 130.6769 0014680  86.3058 273.9544 15.01140337 91688,6941.516,95.927,573.571,553.191,0.0
228,DELTA 1 DEB (YO),DEBRIS,2019-09-01 21:39:42,15.0114117,0.0014682,48.4293,125.4405,91.288,268.9725,2.9256999999999998e-05,1.17e-06,0.0,0 DELTA 1 DEB (YO),1   228U 62002C   19244.90256971 +.00000117 +00000-0 +29257-4 0  9999,2   228 048.4293 125.4405 0014682 091.2880 268.9725 15.01141170067715,6941.513000000001,95.927,573.57,553.187,0.0
228,DELTA 1 DEB (YO),DEBRIS,2019-09-02 20:01:34,15.01142022,0.0014693,48.4294,120.8587,95.6162,264.6438,3.0698e-05,1.36e-06,0.0,0 DELTA 1 DEB (YO),1   228U 62002C   19245.83442648 +.00000136 +00000-0 +30698-4 0  9992,2   228 048.4294 120.8587 0014693 095.6162 264.6438 15.01142022067855,6941.5109999999995,95.927,573.575,553.1759999999998,0.0
228,DELTA 1 DEB (YO),DEBRIS,2019-09-03 02:24:57,15.01142241,0.0014703,48.4294,119.5497,96.8386,263.4211,3.0956e-05,1.39e-06,0.0,0 DELTA 1 DEB (YO),1   228U 62002C   19246.10067121  .00000139  00000-0  30956-4 0  9992,2   228  48.4294 119.5497 0014703  96.8386 263.4211 15.01142241 92029,6941.51,95.927,573.581,553.169,0.0
228,DELTA 1 DEB (YO),DEBRIS,2019-09-03 19:59:17,15.01142769,0.0014705,48.4294,115.9497,100.2819,259.9763,2.997e-05,1.26e-06,0.0,0 DELTA 1 DEB (YO),1   228U 62002C   19246.83284388 +.00000126 +00000-0 +29970-4 0  9998,2   228 048.4294 115.9497 0014705 100.2819 259.9763 15.01142769068000,6941.5080000000025,95.927,573.581,553.1659999999998,0.0
228,DELTA 1 DEB (YO),DEBRIS,2019-09-04 19:57:00,15.01143574,0.0014719000000000002,48.4293,111.0407,104.9371,255.3184,2.8693e-05,1.1e-06,0.0,0 DELTA 1 DEB (YO),1   228U 62002C   19247.83126049 +.00000110 +00000-0 +28693-4 0  9992,2   228 048.4293 111.0407 0014719 104.9371 255.3184 15.01143574068154,6941.5059999999985,95.927,573.5880000000002,553.154,0.0
228,DELTA 1 DEB (YO),DEBRIS,2019-09-05 19:54:44,15.01144489,0.0014738,48.4293,106.1315,109.5585,250.6931,2.7657e-05,9.6e-07,0.0,0 DELTA 1 DEB (YO),1   228U 62002C   19248.82967616  .00000096  00000-0  27657-4 0  9997,2   228  48.4293 106.1315 0014738 109.5585 250.6931 15.01144489 92438,6941.503000000002,95.927,573.5980000000002,553.138,0.0
228,DELTA 1 DEB (YO),DEBRIS,2019-09-06 19:52:27,15.01145224,0.0014757,48.4292,101.2224,114.1724,246.0744,2.5678e-05,7.1e-07,0.0,0 DELTA 1 DEB (YO),1   228U 62002C   19249.82809119 +.00000071 +00000-0 +25678-4 0  9995,2   228 048.4292 101.2224 0014757 114.1724 246.0744 15.01145224068454,6941.501,95.927,573.609,553.122,0.0
228,DELTA 1 DEB (YO),DEBRIS,2019-09-07 15:02:37,15.01145787,0.0014776,48.4292,97.295,117.8826,242.3596,2.5237e-05,6.5e-07,0.0,0 DELTA 1 DEB (YO),1   228U 62002C   19250.62682282 +.00000065 +00000-0 +25237-4 0  9999,2   228 048.4292 097.2950 0014776 117.8826 242.3596 15.01145787068579,6941.499,95.927,573.621,553.107,0.0
228,DELTA 1 DEB (YO),DEBRIS,2019-09-07 23:01:51,15.01146015,0.0014789000000000002,48.4292,95.6587,119.4137,240.8265,2.524e-05,6.5e-07,0.0,0 DELTA 1 DEB (YO),1   228U 62002C   19250.95962760  .00000065  00000-0  25240-4 0  9991,2   228  48.4292  95.6587 0014789 119.4137 240.8265 15.01146015 92752,6941.498000000001,95.927,573.629,553.097,0.0
228,DELTA 1 DEB (YO),DEBRIS,2019-09-09 21:21:26,15.0114747,0.0014859,48.4293,86.1675,128.3803,231.8458,2.5884e-05,7.3e-07,0.0,0 DELTA 1 DEB (YO),1   228U 62002C   19252.88989367 +.00000073 +00000-0 +25884-4 0  9990,2   228 048.4293 086.1675 0014859 128.3803 231.8458 15.01147470068914,6941.494000000002,95.927,573.673,553.044,0.0
228,DELTA 1 DEB (YO),DEBRIS,2019-09-10 18:07:27,15.01147997,0.0014869999999999998,48.4294,81.9128,132.3163,227.9023,2.4741e-05,5.8e-07,0.0,0 DELTA 1 DEB (YO),1   228U 62002C   19253.75518462 +.00000058 +00000-0 +24741-4 0  9995,2   228 048.4294 081.9128 0014870 132.3163 227.9023 15.01147997093172,6941.4919999999975,95.927,573.679,553.035,0.0
228,DELTA 1 DEB (YO),DEBRIS,2019-09-12 21:14:35,15.01149467,0.0014938,48.4296,71.4401,142.0588,218.1391,2.6011e-05,7.5e-07,0.0,0 DELTA 1 DEB (YO),1   228U 62002C   19255.88512972 +.00000075 +00000-0 +26011-4 0  9992,2   228 048.4296 071.4401 0014938 142.0588 218.1391 15.01149467069364,6941.488,95.926,573.722,552.9830000000002,0.0
228,DELTA 1 DEB (YO),DEBRIS,2019-09-13 21:12:17,15.01150073,0.0014985,48.4297,66.531,146.6205,213.5666,2.478e-05,5.9e-07,0.0,0 DELTA 1 DEB (YO),1   228U 62002C   19256.88354070 +.00000059 +00000-0 +24780-4 0  9999,2   228 048.4297 066.5310 0014985 146.6205 213.5666 15.01150073069513,6941.486,95.926,573.753,552.9490000000002,0.0
228,DELTA 1 DEB (YO),DEBRIS,2019-09-14 21:10:00,15.01150785,0.0015027999999999999,48.4298,61.622,151.1539,209.0218,2.4334e-05,5.3e-07,0.0,0 DELTA 1 DEB (YO),1   228U 62002C   19257.88195098 +.00000053 +00000-0 +24334-4 0  9992,2   228 048.4298 061.6220 0015028 151.1539 209.0218 15.01150785069669,6941.484,95.926,573.78,552.9169999999998,0.0
228,DELTA 1 DEB (YO),DEBRIS,2019-09-15 16:20:10,15.01151291,0.0015068,48.4299,57.6947,154.8306,205.3355,2.3588000000000002e-05,4.4e-07,0.0,0 DELTA 1 DEB (YO),1   228U 62002C   19258.68067874  .00000044  00000-0  23588-4 0  9991,2   228  48.4299  57.6947 0015068 154.8306 205.3355 15.01151291 93916,6941.482,95.926,573.806,552.888,0.0
228,DELTA 1 DEB (YO),DEBRIS,2019-09-15 21:07:43,15.01151402,0.0015072,48.4299,56.7128,155.7012,204.4625,2.3466999999999997e-05,4.2e-07,0.0,0 DELTA 1 DEB (YO),1   228U 62002C   19258.88036068 +.00000042 +00000-0 +23467-4 0  9998,2   228 048.4299 056.7128 0015072 155.7012 204.4625 15.01151402069812,6941.482,95.926,573.809,552.884,0.0
228,DELTA 1 DEB (YO),DEBRIS,2019-09-16 21:05:25,15.01152033,0.0015109000000000001,48.43,51.8037,160.1933,199.958,2.4342e-05,5.3e-07,0.0,0 DELTA 1 DEB (YO),1   228U 62002C   19259.87877008 +.00000053 +00000-0 +24342-4 0  9990,2   228 048.4300 051.8037 0015109 160.1933 199.9580 15.01152033069968,6941.48,95.926,573.8330000000002,552.857,0.0
228,DELTA 1 DEB (YO),DEBRIS,2019-09-17 14:39:44,15.01152661,0.0015148,48.4301,48.2036,163.5328,196.6091,2.6426e-05,8.1e-07,0.0,0 DELTA 1 DEB (YO),1   228U 62002C   19260.61093652 +.00000081 +00000-0 +26426-4 0  9995,2   228 048.4301 048.2036 0015148 163.5328 196.6091 15.01152661070078,6941.478,95.926,573.8580000000002,552.828,0.0
228,DELTA 1 DEB (YO),DEBRIS,2019-09-18 14:37:27,15.01153364,0.0015192,48.4302,43.2945,168.0143,192.1145,2.6566e-05,8.2e-07,0.0,0 DELTA 1 DEB (YO),1   228U 62002C   19261.60934495  .00000082  00000-0  26566-4 0  9990,2   228  48.4302  43.2945 0015192 168.0143 192.1145 15.01153364 94356,6941.476,95.926,573.886,552.795,0.0
